start=new Date('2022-05-12T00:00:00.000Z').valueOf();
sats=[{"MEAN_ELEMENT_THEORY":"SGP4","PERIAPSIS":"546.010","REV_AT_EPOCH":"5732","RCS_SIZE":"LARGE","RA_OF_ASC_NODE":"257.3107","NORAD_CAT_ID":"48318","CLASSIFICATION_TYPE":"U","MEAN_ANOMALY":"301.5780","MEAN_MOTION":"15.06390809","MEAN_MOTION_DDOT":"0.0000000000000","TIME_SYSTEM":"UTC","ECCENTRICITY":"0.00017780","REF_FRAME":"TEME","EPHEMERIS_TYPE":"0","DECAY_DATE":null,"CENTER_NAME":"EARTH","TLE_LINE2":"2 48318  53.0568 257.3107 0001778  58.5383 301.5780 15.06390809 57325","OBJECT_ID":"2021-036AU","MEAN_MOTION_DOT":"-0.00000865","OBJECT_TYPE":"PAYLOAD","PERIOD":"95.593","OBJECT_NAME":"STARLINK-2509","GP_ID":"203308757","APOAPSIS":"548.473","INCLINATION":"53.0568","TLE_LINE1":"1 48318U 21036AU  22131.73000411 -.00000865  00000-0 -39179-4 0  9995","SITE":"AFETR","ELEMENT_SET_NO":"999","COUNTRY_CODE":"US","SEMIMAJOR_AXIS":"6925.377","FILE":"3441154","LAUNCH_DATE":"2021-04-29","BSTAR":"-0.00003917900000","EPOCH":"2022-05-11T17:31:12.355104","ARG_OF_PERICENTER":"58.5383"},{"TLE_LINE2":"2 48319  53.0571 260.2968 0001537  67.0184 293.0967 15.06393983 57222","CENTER_NAME":"EARTH","OBJECT_ID":"2021-036AV","MEAN_MOTION_DOT":"-0.00000232","PERIOD":"95.593","OBJECT_TYPE":"PAYLOAD","OBJECT_NAME":"STARLINK-2512","APOAPSIS":"548.296","GP_ID":"203276473","SITE":"AFETR","TLE_LINE1":"1 48319U 21036AV  22131.06284544 -.00000232  00000-0  32947-5 0  9997","INCLINATION":"53.0571","ELEMENT_SET_NO":"999","FILE":"3440740","LAUNCH_DATE":"2021-04-29","COUNTRY_CODE":"US","SEMIMAJOR_AXIS":"6925.367","BSTAR":"0.00000329470000","EPOCH":"2022-05-11T01:30:29.846016","ARG_OF_PERICENTER":"67.0184","PERIAPSIS":"546.168","MEAN_ELEMENT_THEORY":"SGP4","RA_OF_ASC_NODE":"260.2968","REV_AT_EPOCH":"5722","RCS_SIZE":"LARGE","CLASSIFICATION_TYPE":"U","NORAD_CAT_ID":"48319","MEAN_ANOMALY":"293.0967","MEAN_MOTION":"15.06393983","TIME_SYSTEM":"UTC","MEAN_MOTION_DDOT":"0.0000000000000","REF_FRAME":"TEME","ECCENTRICITY":"0.00015370","EPHEMERIS_TYPE":"0","DECAY_DATE":null},{"MEAN_MOTION_DOT":"-0.00001057","TLE_LINE2":"2 48320  53.0548 257.0461 0001361  69.5779 290.5356 15.06392743 57331","CENTER_NAME":"EARTH","OBJECT_ID":"2021-036AW","PERIOD":"95.593","OBJECT_TYPE":"PAYLOAD","OBJECT_NAME":"STARLINK-2029","APOAPSIS":"548.178","GP_ID":"203309752","SITE":"AFETR","INCLINATION":"53.0548","TLE_LINE1":"1 48320U 21036AW  22131.78898116 -.00001057  00000-0 -52098-4 0  9999","ELEMENT_SET_NO":"999","LAUNCH_DATE":"2021-04-29","FILE":"3441154","SEMIMAJOR_AXIS":"6925.371","COUNTRY_CODE":"US","EPOCH":"2022-05-11T18:56:07.972224","ARG_OF_PERICENTER":"69.5779","BSTAR":"-0.00005209800000","MEAN_ELEMENT_THEORY":"SGP4","PERIAPSIS":"546.293","RA_OF_ASC_NODE":"257.0461","RCS_SIZE":"LARGE","REV_AT_EPOCH":"5733","MEAN_MOTION":"15.06392743","MEAN_ANOMALY":"290.5356","CLASSIFICATION_TYPE":"U","NORAD_CAT_ID":"48320","TIME_SYSTEM":"UTC","MEAN_MOTION_DDOT":"0.0000000000000","REF_FRAME":"TEME","ECCENTRICITY":"0.00013610","DECAY_DATE":null,"EPHEMERIS_TYPE":"0"},{"OBJECT_NAME":"STARLINK-2457","GP_ID":"203308508","APOAPSIS":"548.232","MEAN_MOTION_DOT":"0.00001258","OBJECT_ID":"2021-036AX","TLE_LINE2":"2 48321  53.0560 257.0510 0001410  66.4010 293.7127 15.06386329 57334","CENTER_NAME":"EARTH","OBJECT_TYPE":"PAYLOAD","PERIOD":"95.593","SEMIMAJOR_AXIS":"6925.390","COUNTRY_CODE":"US","FILE":"3441154","LAUNCH_DATE":"2021-04-29","EPOCH":"2022-05-11T18:50:49.374816","ARG_OF_PERICENTER":"66.4010","BSTAR":"0.00010334000000","INCLINATION":"53.0560","TLE_LINE1":"1 48321U 21036AX  22131.78529369  .00001258  00000-0  10334-3 0  9998","SITE":"AFETR","ELEMENT_SET_NO":"999","MEAN_MOTION":"15.06386329","MEAN_ANOMALY":"293.7127","NORAD_CAT_ID":"48321","CLASSIFICATION_TYPE":"U","MEAN_ELEMENT_THEORY":"SGP4","PERIAPSIS":"546.279","RCS_SIZE":"LARGE","REV_AT_EPOCH":"5733","RA_OF_ASC_NODE":"257.0510","ECCENTRICITY":"0.00014100","REF_FRAME":"TEME","DECAY_DATE":null,"EPHEMERIS_TYPE":"0","MEAN_MOTION_DDOT":"0.0000000000000","TIME_SYSTEM":"UTC"},{"MEAN_MOTION":"15.06383204","MEAN_ANOMALY":"296.7965","NORAD_CAT_ID":"48322","CLASSIFICATION_TYPE":"U","RA_OF_ASC_NODE":"257.0654","RCS_SIZE":"MEDIUM","REV_AT_EPOCH":"5733","PERIAPSIS":"546.190","MEAN_ELEMENT_THEORY":"SGP4","DECAY_DATE":null,"EPHEMERIS_TYPE":"0","REF_FRAME":"TEME","ECCENTRICITY":"0.00015520","TIME_SYSTEM":"UTC","MEAN_MOTION_DDOT":"0.0000000000000","APOAPSIS":"548.340","GP_ID":"203309257","OBJECT_NAME":"STARLINK-2477","PERIOD":"95.593","OBJECT_TYPE":"PAYLOAD","MEAN_MOTION_DOT":"0.00001839","TLE_LINE2":"2 48322  53.0560 257.0654 0001552  63.3183 296.7965 15.06383204 57330","OBJECT_ID":"2021-036AY","CENTER_NAME":"EARTH","ARG_OF_PERICENTER":"63.3183","EPOCH":"2022-05-11T18:45:30.926016","BSTAR":"0.00014237000000","FILE":"3441154","LAUNCH_DATE":"2021-04-29","SEMIMAJOR_AXIS":"6925.400","COUNTRY_CODE":"US","ELEMENT_SET_NO":"999","SITE":"AFETR","TLE_LINE1":"1 48322U 21036AY  22131.78160794  .00001839  00000-0  14237-3 0  9993","INCLINATION":"53.0560"},{"PERIAPSIS":"545.939","MEAN_ELEMENT_THEORY":"SGP4","RCS_SIZE":"LARGE","REV_AT_EPOCH":"5729","RA_OF_ASC_NODE":"258.2816","MEAN_ANOMALY":"302.4687","MEAN_MOTION":"15.06399474","CLASSIFICATION_TYPE":"U","NORAD_CAT_ID":"48323","MEAN_MOTION_DDOT":"0.0000000000000","TIME_SYSTEM":"UTC","ECCENTRICITY":"0.00018430","REF_FRAME":"TEME","DECAY_DATE":null,"EPHEMERIS_TYPE":"0","MEAN_MOTION_DOT":"-0.00002448","CENTER_NAME":"EARTH","TLE_LINE2":"2 48323  53.0553 258.2816 0001843  57.6480 302.4687 15.06399474 57292","OBJECT_ID":"2021-036AZ","OBJECT_TYPE":"PAYLOAD","PERIOD":"95.592","OBJECT_NAME":"STARLINK-2515","GP_ID":"203275974","APOAPSIS":"548.492","TLE_LINE1":"1 48323U 21036AZ  22131.51253770 -.00002448  00000-0 -14552-3 0  9991","INCLINATION":"53.0553","SITE":"AFETR","ELEMENT_SET_NO":"999","SEMIMAJOR_AXIS":"6925.350","COUNTRY_CODE":"US","LAUNCH_DATE":"2021-04-29","FILE":"3440740","EPOCH":"2022-05-11T12:18:03.257280","ARG_OF_PERICENTER":"57.6480","BSTAR":"-0.00014552000000"},{"MEAN_ELEMENT_THEORY":"SGP4","PERIAPSIS":"546.244","RA_OF_ASC_NODE":"256.8049","RCS_SIZE":"LARGE","REV_AT_EPOCH":"5733","MEAN_MOTION":"15.06404957","MEAN_ANOMALY":"295.7366","CLASSIFICATION_TYPE":"U","NORAD_CAT_ID":"48324","TIME_SYSTEM":"UTC","MEAN_MOTION_DDOT":"0.0000000000000","REF_FRAME":"TEME","ECCENTRICITY":"0.00013780","DECAY_DATE":null,"EPHEMERIS_TYPE":"0","MEAN_MOTION_DOT":"-0.00000559","CENTER_NAME":"EARTH","TLE_LINE2":"2 48324  53.0540 256.8049 0001378  64.3765 295.7366 15.06404957 57331","OBJECT_ID":"2021-036BA","PERIOD":"95.592","OBJECT_TYPE":"PAYLOAD","OBJECT_NAME":"STARLINK-2527","APOAPSIS":"548.153","GP_ID":"203310253","SITE":"AFETR","TLE_LINE1":"1 48324U 21036BA  22131.84057229 -.00000559  00000-0 -18663-4 0  9998","INCLINATION":"53.0540","ELEMENT_SET_NO":"999","LAUNCH_DATE":"2021-04-29","FILE":"3441154","SEMIMAJOR_AXIS":"6925.333","COUNTRY_CODE":"US","EPOCH":"2022-05-11T20:10:25.445856","ARG_OF_PERICENTER":"64.3765","BSTAR":"-0.00001866300000"},{"OBJECT_NAME":"STARLINK-2495","APOAPSIS":"548.280","GP_ID":"203309008","MEAN_MOTION_DOT":"-0.00000719","CENTER_NAME":"EARTH","TLE_LINE2":"2 48325  53.0553 257.1320 0001511  60.8219 299.2921 15.06393353 57339","OBJECT_ID":"2021-036BB","PERIOD":"95.593","OBJECT_TYPE":"PAYLOAD","LAUNCH_DATE":"2021-04-29","FILE":"3441154","SEMIMAJOR_AXIS":"6925.369","COUNTRY_CODE":"US","ARG_OF_PERICENTER":"60.8219","EPOCH":"2022-05-11T18:29:35.672064","BSTAR":"-0.00002936200000","SITE":"AFETR","INCLINATION":"53.0553","TLE_LINE1":"1 48325U 21036BB  22131.77055176 -.00000719  00000-0 -29362-4 0  9996","ELEMENT_SET_NO":"999","MEAN_ANOMALY":"299.2921","MEAN_MOTION":"15.06393353","NORAD_CAT_ID":"48325","CLASSIFICATION_TYPE":"U","MEAN_ELEMENT_THEORY":"SGP4","PERIAPSIS":"546.188","RA_OF_ASC_NODE":"257.1320","RCS_SIZE":"LARGE","REV_AT_EPOCH":"5733","REF_FRAME":"TEME","ECCENTRICITY":"0.00015110","DECAY_DATE":null,"EPHEMERIS_TYPE":"0","TIME_SYSTEM":"UTC","MEAN_MOTION_DDOT":"0.0000000000000"},{"REF_FRAME":"TEME","ECCENTRICITY":"0.00012390","DECAY_DATE":null,"EPHEMERIS_TYPE":"0","TIME_SYSTEM":"UTC","MEAN_MOTION_DDOT":"0.0000000000000","MEAN_MOTION":"15.06392281","MEAN_ANOMALY":"277.1636","NORAD_CAT_ID":"48326","CLASSIFICATION_TYPE":"U","MEAN_ELEMENT_THEORY":"SGP4","PERIAPSIS":"546.379","RA_OF_ASC_NODE":"257.1382","RCS_SIZE":"LARGE","REV_AT_EPOCH":"5733","FILE":"3441154","LAUNCH_DATE":"2021-04-29","SEMIMAJOR_AXIS":"6925.372","COUNTRY_CODE":"US","EPOCH":"2022-05-11T18:24:17.005536","ARG_OF_PERICENTER":"82.9494","BSTAR":"-0.00002836700000","SITE":"AFETR","INCLINATION":"53.0564","TLE_LINE1":"1 48326U 21036BC  22131.76686349 -.00000704  00000-0 -28367-4 0  9996","ELEMENT_SET_NO":"999","OBJECT_NAME":"STARLINK-2498","APOAPSIS":"548.095","GP_ID":"203308758","MEAN_MOTION_DOT":"-0.00000704","OBJECT_ID":"2021-036BC","TLE_LINE2":"2 48326  53.0564 257.1382 0001239  82.9494 277.1636 15.06392281 57334","CENTER_NAME":"EARTH","PERIOD":"95.593","OBJECT_TYPE":"PAYLOAD"},{"REV_AT_EPOCH":"5730","RCS_SIZE":"LARGE","RA_OF_ASC_NODE":"258.0445","PERIAPSIS":"546.406","MEAN_ELEMENT_THEORY":"SGP4","CLASSIFICATION_TYPE":"U","NORAD_CAT_ID":"48327","MEAN_ANOMALY":"294.3906","MEAN_MOTION":"15.06385242","MEAN_MOTION_DDOT":"0.0000000000000","TIME_SYSTEM":"UTC","EPHEMERIS_TYPE":"0","DECAY_DATE":null,"ECCENTRICITY":"0.00012320","REF_FRAME":"TEME","OBJECT_TYPE":"PAYLOAD","PERIOD":"95.593","TLE_LINE2":"2 48327  53.0564 258.0445 0001232  65.7212 294.3906 15.06385242 57302","OBJECT_ID":"2021-036BD","CENTER_NAME":"EARTH","MEAN_MOTION_DOT":"0.00002280","GP_ID":"203310009","APOAPSIS":"548.112","OBJECT_NAME":"STARLINK-2502","ELEMENT_SET_NO":"999","TLE_LINE1":"1 48327U 21036BD  22131.56413418  .00002280  00000-0  17196-3 0  9996","INCLINATION":"53.0564","SITE":"AFETR","BSTAR":"0.00017196000000","ARG_OF_PERICENTER":"65.7212","EPOCH":"2022-05-11T13:32:21.193152","COUNTRY_CODE":"US","SEMIMAJOR_AXIS":"6925.394","FILE":"3441154","LAUNCH_DATE":"2021-04-29"}];
